{
 "type": "FeatureCollection",
 "features": [
  {
   "type": "Feature",
   "properties": {
    "codigo": "251750000000000010001922015533",
    "area_geom_m2": 335.63
   },
   "geometry": {
    "type": "Polygon",
    "coordinates": [
     [
      [
       0.0,
       0.0
      ],
      [
       32.31450565090275,
       0.0
      ],
      [
       35.024039153432895,
       9.826162347245768
      ],
      [
       0.0,
       10.099636245617468
      ],
      [
       0.0,
       0.0
      ]
     ]
    ]
   }
  },
  {
   "type": "Feature",
   "properties": {
    "codigo": "251750000000000010002848932962",
    "area_geom_m2": 166.83
   },
   "geometry": {
    "type": "Polygon",
    "coordinates": [
     [
      [
       32.31450565090275,
       0.0
      ],
      [
       53.23637260247253,
       0.0
      ],
      [
       51.21999705776246,
       8.120881327958493
      ],
      [
       35.024039153432895,
       9.826162347245768
      ],
      [
       32.31450565090275,
       0.0
      ]
     ]
    ]
   }
  },
  {
   "type": "Feature",
   "properties": {
    "codigo": "251750000000000010003659299115",
    "area_geom_m2": 370.32
   },
   "geometry": {
    "type": "Polygon",
    "coordinates": [
     [
      [
       53.23637260247253,
       0.0
      ],
      [
       88.42870187945954,
       0.0
      ],
      [
       89.99012457023882,
       11.88344625650573
      ],
      [
       51.21999705776246,
       8.120881327958493
      ],
      [
       53.23637260247253,
       0.0
      ]
     ]
    ]
   }
  },
  {
   "type": "Feature",
   "properties": {
    "codigo": "251750000000000010004024991807",
    "area_geom_m2": 303.94
   },
   "geometry": {
    "type": "Polygon",
    "coordinates": [
     [
      [
       88.42870187945954,
       0.0
      ],
      [
       118.1392148674779,
       0.0
      ],
      [
       119.44278511141037,
       8.502412948124602
      ],
      [
       89.99012457023882,
       11.88344625650573
      ],
      [
       88.42870187945954,
       0.0
      ]
     ]
    ]
   }
  },
  {
   "type": "Feature",
   "properties": {
    "codigo": "251750000000000010005882815430",
    "area_geom_m2": 82.48
   },
   "geometry": {
    "type": "Polygon",
    "coordinates": [
     [
      [
       118.1392148674779,
       0.0
      ],
      [
       127.34124469565799,
       0.0
      ],
      [
       127.89843187101812,
       10.379682187555217
      ],
      [
       119.44278511141037,
       8.502412948124602
      ],
      [
       118.1392148674779,
       0.0
      ]
     ]
    ]
   }
  },
  {
   "type": "Feature",
   "properties": {
    "codigo": "251750000000000010006736438077",
    "area_geom_m2": 441.39
   },
   "geometry": {
    "type": "Polygon",
    "coordinates": [
     [
      [
       127.34124469565799,
       0.0
      ],
      [
       166.5124046513077,
       0.0
      ],
      [
       167.0372572834573,
       12.191065312693123
      ],
      [
       127.89843187101812,
       10.379682187555217
      ],
      [
       127.34124469565799,
       0.0
      ]
     ]
    ]
   }
  },
  {
   "type": "Feature",
   "properties": {
    "codigo": "251750000000000010007320992010",
    "area_geom_m2": 381.46
   },
   "geometry": {
    "type": "Polygon",
    "coordinates": [
     [
      [
       166.5124046513077,
       0.0
      ],
      [
       198.3911545189797,
       0.0
      ],
      [
       198.92778383603894,
       11.729028796990015
      ],
      [
       167.0372572834573,
       12.191065312693123
      ],
      [
       166.5124046513077,
       0.0
      ]
     ]
    ]
   }
  },
  {
   "type": "Feature",
   "properties": {
    "codigo": "251750000000000010008881713578",
    "area_geom_m2": 354.47
   },
   "geometry": {
    "type": "Polygon",
    "coordinates": [
     [
      [
       198.3911545189797,
       0.0
      ],
      [
       231.11734089839615,
       0.0
      ],
      [
       231.11734089839615,
       10.099636245617468
      ],
      [
       198.92778383603894,
       11.729028796990015
      ],
      [
       198.3911545189797,
       0.0
      ]
     ]
    ]
   }
  },
  {
   "type": "Feature",
   "properties": {
    "codigo": "251750000000000010009012397394",
    "area_geom_m2": 663.98
   },
   "geometry": {
    "type": "Polygon",
    "coordinates": [
     [
      [
       0.0,
       10.099636245617468
      ],
      [
       35.024039153432895,
       9.826162347245768
      ],
      [
       31.54729473164523,
       29.383091887972906
      ],
      [
       0.0,
       30.511986258275616
      ],
      [
       0.0,
       10.099636245617468
      ]
     ]
    ]
   }
  },
  {
   "type": "Feature",
   "properties": {
    "codigo": "251750000000000010010541901221",
    "area_geom_m2": 374.29
   },
   "geometry": {
    "type": "Polygon",
    "coordinates": [
     [
      [
       35.024039153432895,
       9.826162347245768
      ],
      [
       51.21999705776246,
       8.120881327958493
      ],
      [
       51.70306576668851,
       29.851644855331575
      ],
      [
       31.54729473164523,
       29.383091887972906
      ],
      [
       35.024039153432895,
       9.826162347245768
      ]
     ]
    ]
   }
  },
  {
   "type": "Feature",
   "properties": {
    "codigo": "251750000000000010011069125967",
    "area_geom_m2": 755.39
   },
   "geometry": {
    "type": "Polygon",
    "coordinates": [
     [
      [
       51.21999705776246,
       8.120881327958493
      ],
      [
       89.99012457023882,
       11.88344625650573
      ],
      [
       92.01656102642208,
       28.43399158061183
      ],
      [
       51.70306576668851,
       29.851644855331575
      ],
      [
       51.21999705776246,
       8.120881327958493
      ]
     ]
    ]
   }
  },
  {
   "type": "Feature",
   "properties": {
    "codigo": "251750000000000010012541880707",
    "area_geom_m2": 503.76
   },
   "geometry": {
    "type": "Polygon",
    "coordinates": [
     [
      [
       89.99012457023882,
       11.88344625650573
      ],
      [
       119.44278511141037,
       8.502412948124602
      ],
      [
       120.46308291849746,
       26.473098806397687
      ],
      [
       92.01656102642208,
       28.43399158061183
      ],
      [
       89.99012457023882,
       11.88344625650573
      ]
     ]
    ]
   }
  },
  {
   "type": "Feature",
   "properties": {
    "codigo": "251750000000000010013814159039",
    "area_geom_m2": 140.37
   },
   "geometry": {
    "type": "Polygon",
    "coordinates": [
     [
      [
       119.44278511141037,
       8.502412948124602
      ],
      [
       127.89843187101812,
       10.379682187555217
      ],
      [
       126.53752062369213,
       30.90259361452763
      ],
      [
       120.46308291849746,
       26.473098806397687
      ],
      [
       119.44278511141037,
       8.502412948124602
      ]
     ]
    ]
   }
  },
  {
   "type": "Feature",
   "properties": {
    "codigo": "251750000000000010014314563952",
    "area_geom_m2": 816.67
   },
   "geometry": {
    "type": "Polygon",
    "coordinates": [
     [
      [
       127.89843187101812,
       10.379682187555217
      ],
      [
       167.0372572834573,
       12.191065312693123
      ],
      [
       167.91933824656996,
       32.21893004977847
      ],
      [
       126.53752062369213,
       30.90259361452763
      ],
      [
       127.89843187101812,
       10.379682187555217
      ]
     ]
    ]
   }
  },
  {
   "type": "Feature",
   "properties": {
    "codigo": "251750000000000010015994055168",
    "area_geom_m2": 611.8
   },
   "geometry": {
    "type": "Polygon",
    "coordinates": [
     [
      [
       167.0372572834573,
       12.191065312693123
      ],
      [
       198.92778383603894,
       11.729028796990015
      ],
      [
       200.29518788345953,
       29.675046084879366
      ],
      [
       167.91933824656996,
       32.21893004977847
      ],
      [
       167.0372572834573,
       12.191065312693123
      ]
     ]
    ]
   }
  },
  {
   "type": "Feature",
   "properties": {
    "codigo": "251750000000000010016171740915",
    "area_geom_m2": 604.53
   },
   "geometry": {
    "type": "Polygon",
    "coordinates": [
     [
      [
       198.92778383603894,
       11.729028796990015
      ],
      [
       231.11734089839615,
       10.099636245617468
      ],
      [
       231.11734089839615,
       30.511986258275616
      ],
      [
       200.29518788345953,
       29.675046084879366
      ],
      [
       198.92778383603894,
       11.729028796990015
      ]
     ]
    ]
   }
  },
  {
   "type": "Feature",
   "properties": {
    "codigo": "251750000000000010017197844678",
    "area_geom_m2": 528.06
   },
   "geometry": {
    "type": "Polygon",
    "coordinates": [
     [
      [
       0.0,
       30.511986258275616
      ],
      [
       31.54729473164523,
       29.383091887972906
      ],
      [
       29.5946163372944,
       46.17083754731435
      ],
      [
       0.0,
       48.37752303371822
      ],
      [
       0.0,
       30.511986258275616
      ]
     ]
    ]
   }
  },
  {
   "type": "Feature",
   "properties": {
    "codigo": "251750000000000010018061282742",
    "area_geom_m2": 400.46
   },
   "geometry": {
    "type": "Polygon",
    "coordinates": [
     [
      [
       31.54729473164523,
       29.383091887972906
      ],
      [
       51.70306576668851,
       29.851644855331575
      ],
      [
       54.42955838820156,
       48.71934480028757
      ],
      [
       29.5946163372944,
       46.17083754731435
      ],
      [
       31.54729473164523,
       29.383091887972906
      ]
     ]
    ]
   }
  },
  {
   "type": "Feature",
   "properties": {
    "codigo": "251750000000000010019357698762",
    "area_geom_m2": 718.2
   },
   "geometry": {
    "type": "Polygon",
    "coordinates": [
     [
      [
       51.70306576668851,
       29.851644855331575
      ],
      [
       92.01656102642208,
       28.43399158061183
      ],
      [
       90.08586672922218,
       47.352116682510534
      ],
      [
       54.42955838820156,
       48.71934480028757
      ],
      [
       51.70306576668851,
       29.851644855331575
      ]
     ]
    ]
   }
  },
  {
   "type": "Feature",
   "properties": {
    "codigo": "251750000000000010020413941698",
    "area_geom_m2": 602.4
   },
   "geometry": {
    "type": "Polygon",
    "coordinates": [
     [
      [
       92.01656102642208,
       28.43399158061183
      ],
      [
       120.46308291849746,
       26.473098806397687
      ],
      [
       118.51971012606202,
       49.878939979239824
      ],
      [
       90.08586672922218,
       47.352116682510534
      ],
      [
       92.01656102642208,
       28.43399158061183
      ]
     ]
    ]
   }
  },
  {
   "type": "Feature",
   "properties": {
    "codigo": "251750000000000010021245222978",
    "area_geom_m2": 150.42
   },
   "geometry": {
    "type": "Polygon",
    "coordinates": [
     [
      [
       120.46308291849746,
       26.473098806397687
      ],
      [
       126.53752062369213,
       30.90259361452763
      ],
      [
       126.59881300032941,
       49.473783603856006
      ],
      [
       118.51971012606202,
       49.878939979239824
      ],
      [
       120.46308291849746,
       26.473098806397687
      ]
     ]
    ]
   }
  },
  {
   "type": "Feature",
   "properties": {
    "codigo": "251750000000000010022891804531",
    "area_geom_m2": 674.21
   },
   "geometry": {
    "type": "Polygon",
    "coordinates": [
     [
      [
       126.53752062369213,
       30.90259361452763
      ],
      [
       167.91933824656996,
       32.21893004977847
      ],
      [
       164.92378239274774,
       47.50619380196205
      ],
      [
       126.59881300032941,
       49.473783603856006
      ],
      [
       126.53752062369213,
       30.90259361452763
      ]
     ]
    ]
   }
  },
  {
   "type": "Feature",
   "properties": {
    "codigo": "251750000000000010023183391995",
    "area_geom_m2": 498.52
   },
   "geometry": {
    "type": "Polygon",
    "coordinates": [
     [
      [
       167.91933824656996,
       32.21893004977847
      ],
      [
       200.29518788345953,
       29.675046084879366
      ],
      [
       197.47498357338372,
       45.50750788430452
      ],
      [
       164.92378239274774,
       47.50619380196205
      ],
      [
       167.91933824656996,
       32.21893004977847
      ]
     ]
    ]
   }
  },
  {
   "type": "Feature",
   "properties": {
    "codigo": "251750000000000010024112514150",
    "area_geom_m2": 545.69
   },
   "geometry": {
    "type": "Polygon",
    "coordinates": [
     [
      [
       200.29518788345953,
       29.675046084879366
      ],
      [
       231.11734089839615,
       30.511986258275616
      ],
      [
       231.11734089839615,
       48.37752303371822
      ],
      [
       197.47498357338372,
       45.50750788430452
      ],
      [
       200.29518788345953,
       29.675046084879366
      ]
     ]
    ]
   }
  },
  {
   "type": "Feature",
   "properties": {
    "codigo": "251750000000000010025701180455",
    "area_geom_m2": 1183.3
   },
   "geometry": {
    "type": "Polygon",
    "coordinates": [
     [
      [
       0.0,
       48.37752303371822
      ],
      [
       29.5946163372944,
       46.17083754731435
      ],
      [
       33.386180473374615,
       85.63092693840817
      ],
      [
       0.0,
       84.03400267687348
      ],
      [
       0.0,
       48.37752303371822
      ]
     ]
    ]
   }
  },
  {
   "type": "Feature",
   "properties": {
    "codigo": "251750000000000010026683839578",
    "area_geom_m2": 819.66
   },
   "geometry": {
    "type": "Polygon",
    "coordinates": [
     [
      [
       29.5946163372944,
       46.17083754731435
      ],
      [
       54.42955838820156,
       48.71934480028757
      ],
      [
       53.00000743964991,
       83.01808672796751
      ],
      [
       33.386180473374615,
       85.63092693840817
      ],
      [
       29.5946163372944,
       46.17083754731435
      ]
     ]
    ]
   }
  },
  {
   "type": "Feature",
   "properties": {
    "codigo": "251750000000000010027785041822",
    "area_geom_m2": 1182.64
   },
   "geometry": {
    "type": "Polygon",
    "coordinates": [
     [
      [
       54.42955838820156,
       48.71934480028757
      ],
      [
       90.08586672922218,
       47.352116682510534
      ],
      [
       88.23737817328418,
       79.98440003537421
      ],
      [
       53.00000743964991,
       83.01808672796751
      ],
      [
       54.42955838820156,
       48.71934480028757
      ]
     ]
    ]
   }
  },
  {
   "type": "Feature",
   "properties": {
    "codigo": "251750000000000010028265942003",
    "area_geom_m2": 877.34
   },
   "geometry": {
    "type": "Polygon",
    "coordinates": [
     [
      [
       90.08586672922218,
       47.352116682510534
      ],
      [
       118.51971012606202,
       49.878939979239824
      ],
      [
       114.6661449336625,
       80.85952360722293
      ],
      [
       88.23737817328418,
       79.98440003537421
      ],
      [
       90.08586672922218,
       47.352116682510534
      ]
     ]
    ]
   }
  },
  {
   "type": "Feature",
   "properties": {
    "codigo": "251750000000000010029958108104",
    "area_geom_m2": 310.38
   },
   "geometry": {
    "type": "Polygon",
    "coordinates": [
     [
      [
       118.51971012606202,
       49.878939979239824
      ],
      [
       126.59881300032941,
       49.473783603856006
      ],
      [
       124.94785230941443,
       84.99346082100973
      ],
      [
       114.6661449336625,
       80.85952360722293
      ],
      [
       118.51971012606202,
       49.878939979239824
      ]
     ]
    ]
   }
  },
  {
   "type": "Feature",
   "properties": {
    "codigo": "251750000000000010030960888929",
    "area_geom_m2": 1380.04
   },
   "geometry": {
    "type": "Polygon",
    "coordinates": [
     [
      [
       126.59881300032941,
       49.473783603856006
      ],
      [
       164.92378239274774,
       47.50619380196205
      ],
      [
       164.33925491844354,
       83.12641254717894
      ],
      [
       124.94785230941443,
       84.99346082100973
      ],
      [
       126.59881300032941,
       49.473783603856006
      ]
     ]
    ]
   }
  },
  {
   "type": "Feature",
   "properties": {
    "codigo": "251750000000000010031385766677",
    "area_geom_m2": 1279.18
   },
   "geometry": {
    "type": "Polygon",
    "coordinates": [
     [
      [
       164.92378239274774,
       47.50619380196205
      ],
      [
       197.47498357338372,
       45.50750788430452
      ],
      [
       201.50930243366625,
       83.17896914632607
      ],
      [
       164.33925491844354,
       83.12641254717894
      ],
      [
       164.92378239274774,
       47.50619380196205
      ]
     ]
    ]
   }
  },
  {
   "type": "Feature",
   "properties": {
    "codigo": "251750000000000010032185359884",
    "area_geom_m2": 1155.75
   },
   "geometry": {
    "type": "Polygon",
    "coordinates": [
     [
      [
       197.47498357338372,
       45.50750788430452
      ],
      [
       231.11734089839615,
       48.37752303371822
      ],
      [
       231.11734089839615,
       84.03400267687348
      ],
      [
       201.50930243366625,
       83.17896914632607
      ],
      [
       197.47498357338372,
       45.50750788430452
      ]
     ]
    ]
   }
  },
  {
   "type": "Feature",
   "properties": {
    "codigo": "251750000000000010033736622014",
    "area_geom_m2": 871.63
   },
   "geometry": {
    "type": "Polygon",
    "coordinates": [
     [
      [
       0.0,
       84.03400267687348
      ],
      [
       33.386180473374615,
       85.63092693840817
      ],
      [
       31.500826268741402,
       112.6544260493525
      ],
      [
       0.0,
       110.63768651945475
      ],
      [
       0.0,
       84.03400267687348
      ]
     ]
    ]
   }
  },
  {
   "type": "Feature",
   "properties": {
    "codigo": "251750000000000010034414623353",
    "area_geom_m2": 512.73
   },
   "geometry": {
    "type": "Polygon",
    "coordinates": [
     [
      [
       33.386180473374615,
       85.63092693840817
      ],
      [
       53.00000743964991,
       83.01808672796751
      ],
      [
       49.09080358681089,
       111.6803032639648
      ],
      [
       31.500826268741402,
       112.6544260493525
      ],
      [
       33.386180473374615,
       85.63092693840817
      ]
     ]
    ]
   }
  },
  {
   "type": "Feature",
   "properties": {
    "codigo": "251750000000000010035734316227",
    "area_geom_m2": 1083.21
   },
   "geometry": {
    "type": "Polygon",
    "coordinates": [
     [
      [
       53.00000743964991,
       83.01808672796751
      ],
      [
       88.23737817328418,
       79.98440003537421
      ],
      [
       88.999267325057,
       109.21172662578243
      ],
      [
       49.09080358681089,
       111.6803032639648
      ],
      [
       53.00000743964991,
       83.01808672796751
      ]
     ]
    ]
   }
  },
  {
   "type": "Feature",
   "properties": {
    "codigo": "251750000000000010036969847345",
    "area_geom_m2": 770.3
   },
   "geometry": {
    "type": "Polygon",
    "coordinates": [
     [
      [
       88.23737817328418,
       79.98440003537421
      ],
      [
       114.6661449336625,
       80.85952360722293
      ],
      [
       114.66867601694561,
       110.81079733796804
      ],
      [
       88.999267325057,
       109.21172662578243
      ],
      [
       88.23737817328418,
       79.98440003537421
      ]
     ]
    ]
   }
  },
  {
   "type": "Feature",
   "properties": {
    "codigo": "251750000000000010037984628557",
    "area_geom_m2": 303.13
   },
   "geometry": {
    "type": "Polygon",
    "coordinates": [
     [
      [
       114.6661449336625,
       80.85952360722293
      ],
      [
       124.94785230941443,
       84.99346082100973
      ],
      [
       126.07046219390486,
       111.19610942670603
      ],
      [
       114.66867601694561,
       110.81079733796804
      ],
      [
       114.6661449336625,
       80.85952360722293
      ]
     ]
    ]
   }
  },
  {
   "type": "Feature",
   "properties": {
    "codigo": "251750000000000010038602170256",
    "area_geom_m2": 1148.33
   },
   "geometry": {
    "type": "Polygon",
    "coordinates": [
     [
      [
       124.94785230941443,
       84.99346082100973
      ],
      [
       164.33925491844354,
       83.12641254717894
      ],
      [
       166.56484980056396,
       114.48195585862494
      ],
      [
       126.07046219390486,
       111.19610942670603
      ],
      [
       124.94785230941443,
       84.99346082100973
      ]
     ]
    ]
   }
  },
  {
   "type": "Feature",
   "properties": {
    "codigo": "251750000000000010039589196606",
    "area_geom_m2": 961.74
   },
   "geometry": {
    "type": "Polygon",
    "coordinates": [
     [
      [
       164.33925491844354,
       83.12641254717894
      ],
      [
       201.50930243366625,
       83.17896914632607
      ],
      [
       197.81670101304445,
       108.18129253716226
      ],
      [
       166.56484980056396,
       114.48195585862494
      ],
      [
       164.33925491844354,
       83.12641254717894
      ]
     ]
    ]
   }
  },
  {
   "type": "Feature",
   "properties": {
    "codigo": "251750000000000010040750597199",
    "area_geom_m2": 814.67
   },
   "geometry": {
    "type": "Polygon",
    "coordinates": [
     [
      [
       201.50930243366625,
       83.17896914632607
      ],
      [
       231.11734089839615,
       84.03400267687348
      ],
      [
       231.11734089839615,
       110.63768651945475
      ],
      [
       197.81670101304445,
       108.18129253716226
      ],
      [
       201.50930243366625,
       83.17896914632607
      ]
     ]
    ]
   }
  },
  {
   "type": "Feature",
   "properties": {
    "codigo": "251750000000000010041184547979",
    "area_geom_m2": 1067.23
   },
   "geometry": {
    "type": "Polygon",
    "coordinates": [
     [
      [
       0.0,
       110.63768651945475
      ],
      [
       31.500826268741402,
       112.6544260493525
      ],
      [
       33.17099619286157,
       146.47798508304825
      ],
      [
       0.0,
       142.9660581441213
      ],
      [
       0.0,
       110.63768651945475
      ]
     ]
    ]
   }
  },
  {
   "type": "Feature",
   "properties": {
    "codigo": "251750000000000010042902750056",
    "area_geom_m2": 557.59
   },
   "geometry": {
    "type": "Polygon",
    "coordinates": [
     [
      [
       31.500826268741402,
       112.6544260493525
      ],
      [
       49.09080358681089,
       111.6803032639648
      ],
      [
       50.38334127209769,
       141.43065446552188
      ],
      [
       33.17099619286157,
       146.47798508304825
      ],
      [
       31.500826268741402,
       112.6544260493525
      ]
     ]
    ]
   }
  },
  {
   "type": "Feature",
   "properties": {
    "codigo": "251750000000000010043111505446",
    "area_geom_m2": 1183.89
   },
   "geometry": {
    "type": "Polygon",
    "coordinates": [
     [
      [
       49.09080358681089,
       111.6803032639648
      ],
      [
       88.999267325057,
       109.21172662578243
      ],
      [
       86.20491962008627,
       142.03051461654744
      ],
      [
       50.38334127209769,
       141.43065446552188
      ],
      [
       49.09080358681089,
       111.6803032639648
      ]
     ]
    ]
   }
  },
  {
   "type": "Feature",
   "properties": {
    "codigo": "251750000000000010044577975425",
    "area_geom_m2": 905.38
   },
   "geometry": {
    "type": "Polygon",
    "coordinates": [
     [
      [
       88.999267325057,
       109.21172662578243
      ],
      [
       114.66867601694561,
       110.81079733796804
      ],
      [
       114.83516811334276,
       144.49042041647587
      ],
      [
       86.20491962008627,
       142.03051461654744
      ],
      [
       88.999267325057,
       109.21172662578243
      ]
     ]
    ]
   }
  },
  {
   "type": "Feature",
   "properties": {
    "codigo": "251750000000000010045198171704",
    "area_geom_m2": 362.89
   },
   "geometry": {
    "type": "Polygon",
    "coordinates": [
     [
      [
       114.66867601694561,
       110.81079733796804
      ],
      [
       126.07046219390486,
       111.19610942670603
      ],
      [
       126.80791022262093,
       139.4361230373149
      ],
      [
       114.83516811334276,
       144.49042041647587
      ],
      [
       114.66867601694561,
       110.81079733796804
      ]
     ]
    ]
   }
  },
  {
   "type": "Feature",
   "properties": {
    "codigo": "251750000000000010046674972673",
    "area_geom_m2": 1120.68
   },
   "geometry": {
    "type": "Polygon",
    "coordinates": [
     [
      [
       126.07046219390486,
       111.19610942670603
      ],
      [
       166.56484980056396,
       114.48195585862494
      ],
      [
       164.07501485640958,
       143.71849137800177
      ],
      [
       126.80791022262093,
       139.4361230373149
      ],
      [
       126.07046219390486,
       111.19610942670603
      ]
     ]
    ]
   }
  },
  {
   "type": "Feature",
   "properties": {
    "codigo": "251750000000000010047788762735",
    "area_geom_m2": 1162.65
   },
   "geometry": {
    "type": "Polygon",
    "coordinates": [
     [
      [
       166.56484980056396,
       114.48195585862494
      ],
      [
       197.81670101304445,
       108.18129253716226
      ],
      [
       200.40265828192622,
       147.75821228418158
      ],
      [
       164.07501485640958,
       143.71849137800177
      ],
      [
       166.56484980056396,
       114.48195585862494
      ]
     ]
    ]
   }
  },
  {
   "type": "Feature",
   "properties": {
    "codigo": "251750000000000010048331910954",
    "area_geom_m2": 1152.27
   },
   "geometry": {
    "type": "Polygon",
    "coordinates": [
     [
      [
       197.81670101304445,
       108.18129253716226
      ],
      [
       231.11734089839615,
       110.63768651945475
      ],
      [
       231.11734089839615,
       142.9660581441213
      ],
      [
       200.40265828192622,
       147.75821228418158
      ],
      [
       197.81670101304445,
       108.18129253716226
      ]
     ]
    ]
   }
  },
  {
   "type": "Feature",
   "properties": {
    "codigo": "251750000000000010049731715993",
    "area_geom_m2": 604.31
   },
   "geometry": {
    "type": "Polygon",
    "coordinates": [
     [
      [
       0.0,
       142.9660581441213
      ],
      [
       33.17099619286157,
       146.47798508304825
      ],
      [
       32.31450565090275,
       163.1553125065959
      ],
      [
       0.0,
       163.1553125065959
      ],
      [
       0.0,
       142.9660581441213
      ]
     ]
    ]
   }
  },
  {
   "type": "Feature",
   "properties": {
    "codigo": "251750000000000010050764136907",
    "area_geom_m2": 368.63
   },
   "geometry": {
    "type": "Polygon",
    "coordinates": [
     [
      [
       33.17099619286157,
       146.47798508304825
      ],
      [
       50.38334127209769,
       141.43065446552188
      ],
      [
       53.23637260247253,
       163.1553125065959
      ],
      [
       32.31450565090275,
       163.1553125065959
      ],
      [
       33.17099619286157,
       146.47798508304825
      ]
     ]
    ]
   }
  },
  {
   "type": "Feature",
   "properties": {
    "codigo": "251750000000000010051894128861",
    "area_geom_m2": 759.97
   },
   "geometry": {
    "type": "Polygon",
    "coordinates": [
     [
      [
       50.38334127209769,
       141.43065446552188
      ],
      [
       86.20491962008627,
       142.03051461654744
      ],
      [
       88.42870187945954,
       163.1553125065959
      ],
      [
       53.23637260247253,
       163.1553125065959
      ],
      [
       50.38334127209769,
       141.43065446552188
      ]
     ]
    ]
   }
  },
  {
   "type": "Feature",
   "properties": {
    "codigo": "251750000000000010052145065004",
    "area_geom_m2": 576.94
   },
   "geometry": {
    "type": "Polygon",
    "coordinates": [
     [
      [
       86.20491962008627,
       142.03051461654744
      ],
      [
       114.83516811334276,
       144.49042041647587
      ],
      [
       118.1392148674779,
       163.1553125065959
      ],
      [
       88.42870187945954,
       163.1553125065959
      ],
      [
       86.20491962008627,
       142.03051461654744
      ]
     ]
    ]
   }
  },
  {
   "type": "Feature",
   "properties": {
    "codigo": "251750000000000010053784294340",
    "area_geom_m2": 229.22
   },
   "geometry": {
    "type": "Polygon",
    "coordinates": [
     [
      [
       114.83516811334276,
       144.49042041647587
      ],
      [
       126.80791022262093,
       139.4361230373149
      ],
      [
       127.34124469565799,
       163.1553125065959
      ],
      [
       118.1392148674779,
       163.1553125065959
      ],
      [
       114.83516811334276,
       144.49042041647587
      ]
     ]
    ]
   }
  },
  {
   "type": "Feature",
   "properties": {
    "codigo": "251750000000000010054359775139",
    "area_geom_m2": 821.51
   },
   "geometry": {
    "type": "Polygon",
    "coordinates": [
     [
      [
       126.80791022262093,
       139.4361230373149
      ],
      [
       164.07501485640958,
       143.71849137800177
      ],
      [
       166.5124046513077,
       163.1553125065959
      ],
      [
       127.34124469565799,
       163.1553125065959
      ],
      [
       126.80791022262093,
       139.4361230373149
      ]
     ]
    ]
   }
  },
  {
   "type": "Feature",
   "properties": {
    "codigo": "251750000000000010055086278016",
    "area_geom_m2": 593.54
   },
   "geometry": {
    "type": "Polygon",
    "coordinates": [
     [
      [
       164.07501485640958,
       143.71849137800177
      ],
      [
       200.40265828192622,
       147.75821228418158
      ],
      [
       198.3911545189797,
       163.1553125065959
      ],
      [
       166.5124046513077,
       163.1553125065959
      ],
      [
       164.07501485640958,
       143.71849137800177
      ]
     ]
    ]
   }
  },
  {
   "type": "Feature",
   "properties": {
    "codigo": "251750000000000010056906166068",
    "area_geom_m2": 562.0
   },
   "geometry": {
    "type": "Polygon",
    "coordinates": [
     [
      [
       200.40265828192622,
       147.75821228418158
      ],
      [
       231.11734089839615,
       142.9660581441213
      ],
      [
       231.11734089839615,
       163.1553125065959
      ],
      [
       198.3911545189797,
       163.1553125065959
      ],
      [
       200.40265828192622,
       147.75821228418158
      ]
     ]
    ]
   }
  }
 ]
}