{
 "type": "FeatureCollection",
 "features": [
  {
   "type": "Feature",
   "properties": {
    "codigo": "251750000000000000000000000001",
    "tipo": 1,
    "planta": 1,
    "area_m2": 61.66
   },
   "geometry": {
    "type": "Polygon",
    "coordinates": [
     [
      [
       23.726777673464213,
       3.963053671067228
      ],
      [
       14.552741884488643,
       5.4715534964521595
      ],
      [
       15.171155567370448,
       6.597013825783674
      ],
      [
       19.239353400199665,
       14.000788029784935
      ],
      [
       23.031880253150725,
       13.986412562196115
      ],
      [
       23.192702860023402,
       11.666670598318074
      ],
      [
       23.726777673464213,
       3.963053671067228
      ]
     ]
    ]
   }
  },
  {
   "type": "Feature",
   "properties": {
    "codigo": "251750000000000000000000000001",
    "tipo": 1,
    "planta": 1,
    "area_m2": 52.05
   },
   "geometry": {
    "type": "Polygon",
    "coordinates": [
     [
      [
       23.726777673464213,
       3.963053671067228
      ],
      [
       24.00152746567467,
       0.0
      ],
      [
       11.546253374284476,
       0.0
      ],
      [
       14.552741884488643,
       5.4715534964521595
      ],
      [
       23.726777673464213,
       3.963053671067228
      ]
     ]
    ]
   }
  },
  {
   "type": "Feature",
   "properties": {
    "codigo": "251750000000000000000000000001",
    "tipo": 1,
    "planta": 1,
    "area_m2": 88.81
   },
   "geometry": {
    "type": "Polygon",
    "coordinates": [
     [
      [
       4.732922612330677,
       0.0
      ],
      [
       0.0,
       0.0
      ],
      [
       0.0,
       7.864481657687784
      ],
      [
       13.63035812983435,
       5.623222376412925
      ],
      [
       14.552741884488643,
       5.4715534964521595
      ],
      [
       11.546253374284476,
       0.0
      ],
      [
       4.732922612330677,
       0.0
      ]
     ]
    ]
   }
  },
  {
   "type": "Feature",
   "properties": {
    "codigo": "251750000000000000000000000001",
    "tipo": 1,
    "planta": 1,
    "area_m2": 126.83
   },
   "geometry": {
    "type": "Polygon",
    "coordinates": [
     [
      [
       0.0,
       7.864481657687784
      ],
      [
       0.0,
       14.073714263918045
      ],
      [
       19.239353400199665,
       14.000788029784935
      ],
      [
       15.171155567370448,
       6.597013825783674
      ],
      [
       13.63035812983435,
       5.623222376412925
      ],
      [
       0.0,
       7.864481657687784
      ]
     ]
    ]
   }
  },
  {
   "type": "Feature",
   "properties": {
    "codigo": "251750000000000000000000000002",
    "tipo": 1,
    "planta": 1,
    "area_m2": 31.48
   },
   "geometry": {
    "type": "Polygon",
    "coordinates": [
     [
      [
       37.34354114407619,
       2.2527465491582728
      ],
      [
       37.45348553151498,
       0.0
      ],
      [
       28.392843515828716,
       0.0
      ],
      [
       29.26927915435597,
       4.973598538230729
      ],
      [
       37.34354114407619,
       2.2527465491582728
      ]
     ]
    ]
   }
  },
  {
   "type": "Feature",
   "properties": {
    "codigo": "251750000000000000000000000002",
    "tipo": 1,
    "planta": 1,
    "area_m2": 82.71
   },
   "geometry": {
    "type": "Polygon",
    "coordinates": [
     [
      [
       24.00152746567467,
       0.0
      ],
      [
       23.522461835799103,
       6.910151916352327
      ],
      [
       23.031880253150725,
       13.986412562196115
      ],
      [
       30.734900079222914,
       13.29070679933198
      ],
      [
       29.26927915435597,
       4.973598538230729
      ],
      [
       28.392843515828716,
       0.0
      ],
      [
       24.00152746567467,
       0.0
      ]
     ]
    ]
   }
  },
  {
   "type": "Feature",
   "properties": {
    "codigo": "251750000000000000000000000002",
    "tipo": 1,
    "planta": 1,
    "area_m2": 67.4
   },
   "geometry": {
    "type": "Polygon",
    "coordinates": [
     [
      [
       30.734900079222914,
       13.29070679933198
      ],
      [
       36.831711681302465,
       12.740067301779696
      ],
      [
       37.34354114407619,
       2.2527465491582728
      ],
      [
       29.26927915435597,
       4.973598538230729
      ],
      [
       30.734900079222914,
       13.29070679933198
      ]
     ]
    ]
   }
  },
  {
   "type": "Feature",
   "properties": {
    "codigo": "251750000000000000000000000002",
    "tipo": 1,
    "planta": 1,
    "area_m2": 184.1
   },
   "geometry": {
    "type": "Polygon",
    "coordinates": [
     [
      [
       37.45348553151498,
       0.0
      ],
      [
       37.34354114407619,
       2.2527465491582728
      ],
      [
       36.831711681302465,
       12.740067301779696
      ],
      [
       52.56090445599383,
       11.319469886008337
      ],
      [
       52.356948281187876,
       0.0
      ],
      [
       44.02867723651861,
       0.0
      ],
      [
       37.45348553151498,
       0.0
      ]
     ]
    ]
   }
  },
  {
   "type": "Feature",
   "properties": {
    "codigo": "251750000000000000000000000003",
    "tipo": 2,
    "planta": 3,
    "area_m2": 26.08
   },
   "geometry": {
    "type": "Polygon",
    "coordinates": [
     [
      [
       55.23835788396857,
       11.424352680743528
      ],
      [
       66.633947532141,
       11.870747481664418
      ],
      [
       65.60167167372353,
       7.252824612462889
      ],
      [
       55.23835788396857,
       11.424352680743528
      ]
     ]
    ]
   }
  },
  {
   "type": "Feature",
   "properties": {
    "codigo": "251750000000000000000000000003",
    "tipo": 2,
    "planta": 3,
    "area_m2": 66.35
   },
   "geometry": {
    "type": "Polygon",
    "coordinates": [
     [
      [
       78.62756385508395,
       2.0095331372341856
      ],
      [
       78.76791932511097,
       0.0
      ],
      [
       63.980398221385435,
       0.0
      ],
      [
       65.60167167372353,
       7.252824612462889
      ],
      [
       78.62756385508395,
       2.0095331372341856
      ]
     ]
    ]
   }
  },
  {
   "type": "Feature",
   "properties": {
    "codigo": "251750000000000000000000000003",
    "tipo": 2,
    "planta": 3,
    "area_m2": 91.02
   },
   "geometry": {
    "type": "Polygon",
    "coordinates": [
     [
      [
       67.38382188271964,
       11.900122004771779
      ],
      [
       77.90796342824989,
       12.312379923416094
      ],
      [
       78.12241798282749,
       9.241936471717795
      ],
      [
       78.62756385508395,
       2.0095331372341856
      ],
      [
       65.60167167372353,
       7.252824612462889
      ],
      [
       66.633947532141,
       11.870747481664418
      ],
      [
       67.38382188271964,
       11.900122004771779
      ]
     ]
    ]
   }
  },
  {
   "type": "Feature",
   "properties": {
    "codigo": "251750000000000000000000000003",
    "tipo": 2,
    "planta": 3,
    "area_m2": 122.5
   },
   "geometry": {
    "type": "Polygon",
    "coordinates": [
     [
      [
       63.980398221385435,
       0.0
      ],
      [
       52.356948281187876,
       0.0
      ],
      [
       52.56090445599383,
       11.319469886008337
      ],
      [
       55.23835788396857,
       11.424352680743528
      ],
      [
       65.60167167372353,
       7.252824612462889
      ],
      [
       63.980398221385435,
       0.0
      ]
     ]
    ]
   }
  },
  {
   "type": "Feature",
   "properties": {
    "codigo": "251750000000000000000000000004",
    "tipo": 1,
    "planta": 3,
    "area_m2": 23.34
   },
   "geometry": {
    "type": "Polygon",
    "coordinates": [
     [
      [
       80.6538727398115,
       12.90507029904771
      ],
      [
       89.84832318359312,
       14.889645049679974
      ],
      [
       83.42641115031498,
       8.427286245777626
      ],
      [
       80.6538727398115,
       12.90507029904771
      ]
     ]
    ]
   }
  },
  {
   "type": "Feature",
   "properties": {
    "codigo": "251750000000000000000000000004",
    "tipo": 1,
    "planta": 3,
    "area_m2": 50.78
   },
   "geometry": {
    "type": "Polygon",
    "coordinates": [
     [
      [
       78.76791932511097,
       0.0
      ],
      [
       78.52388941793221,
       3.493887234017281
      ],
      [
       81.4023837864281,
       6.390511063157022
      ],
      [
       83.42641115031498,
       8.427286245777626
      ],
      [
       88.64438828694415,
       0.0
      ],
      [
       84.15880385871736,
       0.0
      ],
      [
       78.76791932511097,
       0.0
      ]
     ]
    ]
   }
  },
  {
   "type": "Feature",
   "properties": {
    "codigo": "251750000000000000000000000004",
    "tipo": 1,
    "planta": 3,
    "area_m2": 30.11
   },
   "geometry": {
    "type": "Polygon",
    "coordinates": [
     [
      [
       77.90796342824989,
       12.312379923416094
      ],
      [
       78.76803063239826,
       12.498020997631045
      ],
      [
       80.6538727398115,
       12.90507029904771
      ],
      [
       83.42641115031498,
       8.427286245777626
      ],
      [
       81.4023837864281,
       6.390511063157022
      ],
      [
       78.52388941793221,
       3.493887234017281
      ],
      [
       77.90796342824989,
       12.312379923416094
      ]
     ]
    ]
   }
  },
  {
   "type": "Feature",
   "properties": {
    "codigo": "251750000000000000000000000004",
    "tipo": 1,
    "planta": 3,
    "area_m2": 142.73
   },
   "geometry": {
    "type": "Polygon",
    "coordinates": [
     [
      [
       89.84832318359312,
       14.889645049679974
      ],
      [
       94.91532733399436,
       15.983331786012988
      ],
      [
       96.37123436496043,
       0.0
      ],
      [
       88.64438828694415,
       0.0
      ],
      [
       83.42641115031498,
       8.427286245777626
      ],
      [
       89.84832318359312,
       14.889645049679974
      ]
     ]
    ]
   }
  },
  {
   "type": "Feature",
   "properties": {
    "codigo": "251750000000000000000000000005",
    "tipo": 1,
    "planta": 2,
    "area_m2": 280.61
   },
   "geometry": {
    "type": "Polygon",
    "coordinates": [
     [
      [
       96.37123436496043,
       0.0
      ],
      [
       115.17389492354003,
       0.0
      ],
      [
       113.72033250794262,
       14.01517519501611
      ],
      [
       94.91532733399436,
       15.983331786012988
      ],
      [
       96.37123436496043,
       0.0
      ]
     ]
    ]
   }
  },
  {
   "type": "Feature",
   "properties": {
    "codigo": "251750000000000000000000000006",
    "tipo": 2,
    "planta": 2,
    "area_m2": 403.15
   },
   "geometry": {
    "type": "Polygon",
    "coordinates": [
     [
      [
       115.17389492354003,
       0.0
      ],
      [
       143.15075004988023,
       0.0
      ],
      [
       143.15075004988023,
       14.073714263918045
      ],
      [
       113.72033250794262,
       14.01517519501611
      ],
      [
       115.17389492354003,
       0.0
      ]
     ]
    ]
   }
  },
  {
   "type": "Feature",
   "properties": {
    "codigo": "251750000000000000000000000007",
    "tipo": 2,
    "planta": 1,
    "area_m2": 576.73
   },
   "geometry": {
    "type": "Polygon",
    "coordinates": [
     [
      [
       0.0,
       14.073714263918045
      ],
      [
       23.031880253150725,
       13.986412562196115
      ],
      [
       24.11633465933378,
       37.36581163372493
      ],
      [
       0.0,
       39.57091212127678
      ],
      [
       0.0,
       14.073714263918045
      ]
     ]
    ]
   }
  },
  {
   "type": "Feature",
   "properties": {
    "codigo": "251750000000000000000000000008",
    "tipo": 1,
    "planta": 1,
    "area_m2": 782.35
   },
   "geometry": {
    "type": "Polygon",
    "coordinates": [
     [
      [
       23.031880253150725,
       13.986412562196115
      ],
      [
       52.56090445599383,
       11.319469886008337
      ],
      [
       52.49400069586649,
       42.016794280411546
      ],
      [
       24.11633465933378,
       37.36581163372493
      ],
      [
       23.031880253150725,
       13.986412562196115
      ]
     ]
    ]
   }
  },
  {
   "type": "Feature",
   "properties": {
    "codigo": "251750000000000000000000000009",
    "tipo": 1,
    "planta": 1,
    "area_m2": 726.52
   },
   "geometry": {
    "type": "Polygon",
    "coordinates": [
     [
      [
       52.56090445599383,
       11.319469886008337
      ],
      [
       77.90796342824989,
       12.312379923416094
      ],
      [
       75.9830589044797,
       41.11780095971565
      ],
      [
       52.49400069586649,
       42.016794280411546
      ],
      [
       52.56090445599383,
       11.319469886008337
      ]
     ]
    ]
   }
  },
  {
   "type": "Feature",
   "properties": {
    "codigo": "251750000000000000000000000010",
    "tipo": 1,
    "planta": 4,
    "area_m2": 80.66
   },
   "geometry": {
    "type": "Polygon",
    "coordinates": [
     [
      [
       85.09324377103258,
       39.92324322126084
      ],
      [
       96.58607161121428,
       38.41626541188378
      ],
      [
       96.18893902001648,
       33.08400171331552
      ],
      [
       88.30687898972225,
       30.178807676792896
      ],
      [
       84.86719616328406,
       36.46946410172986
      ],
      [
       85.09324377103258,
       39.92324322126084
      ]
     ]
    ]
   }
  },
  {
   "type": "Feature",
   "properties": {
    "codigo": "251750000000000000000000000010",
    "tipo": 1,
    "planta": 4,
    "area_m2": 92.66
   },
   "geometry": {
    "type": "Polygon",
    "coordinates": [
     [
      [
       83.36319619863912,
       13.489863806888236
      ],
      [
       77.90796342824989,
       12.312379923416094
      ],
      [
       76.99272190792011,
       26.008600706026545
      ],
      [
       84.36027066923404,
       28.724154589515543
      ],
      [
       83.36319619863912,
       13.489863806888236
      ]
     ]
    ]
   }
  },
  {
   "type": "Feature",
   "properties": {
    "codigo": "251750000000000000000000000010",
    "tipo": 1,
    "planta": 4,
    "area_m2": 123.4
   },
   "geometry": {
    "type": "Polygon",
    "coordinates": [
     [
      [
       84.36027066923404,
       28.724154589515543
      ],
      [
       76.99272190792011,
       26.008600706026545
      ],
      [
       75.9830589044797,
       41.11780095971565
      ],
      [
       82.81537959720553,
       40.221924347478605
      ],
      [
       85.09324377103258,
       39.92324322126084
      ],
      [
       84.86719616328406,
       36.46946410172986
      ],
      [
       88.30687898972225,
       30.178807676792896
      ],
      [
       84.36027066923404,
       28.724154589515543
      ]
     ]
    ]
   }
  },
  {
   "type": "Feature",
   "properties": {
    "codigo": "251750000000000000000000000010",
    "tipo": 1,
    "planta": 4,
    "area_m2": 185.11
   },
   "geometry": {
    "type": "Polygon",
    "coordinates": [
     [
      [
       94.91532733399436,
       15.983331786012988
      ],
      [
       83.36319619863912,
       13.489863806888236
      ],
      [
       84.36027066923404,
       28.724154589515543
      ],
      [
       88.30687898972225,
       30.178807676792896
      ],
      [
       96.18893902001648,
       33.08400171331552
      ],
      [
       95.05361148521699,
       17.840060687128386
      ],
      [
       94.91532733399436,
       15.983331786012988
      ]
     ]
    ]
   }
  },
  {
   "type": "Feature",
   "properties": {
    "codigo": "251750000000000000000000000011",
    "tipo": 2,
    "planta": 1,
    "area_m2": 504.93
   },
   "geometry": {
    "type": "Polygon",
    "coordinates": [
     [
      [
       94.91532733399436,
       15.983331786012988
      ],
      [
       113.72033250794262,
       14.01517519501611
      ],
      [
       118.7746447069564,
       40.94297960302926
      ],
      [
       96.58607161121428,
       38.41626541188378
      ],
      [
       94.91532733399436,
       15.983331786012988
      ]
     ]
    ]
   }
  },
  {
   "type": "Feature",
   "properties": {
    "codigo": "251750000000000000000000000012",
    "tipo": 2,
    "planta": 4,
    "area_m2": 706.86
   },
   "geometry": {
    "type": "Polygon",
    "coordinates": [
     [
      [
       113.72033250794262,
       14.01517519501611
      ],
      [
       143.15075004988023,
       14.073714263918045
      ],
      [
       143.15075004988023,
       39.57091212127678
      ],
      [
       118.7746447069564,
       40.94297960302926
      ],
      [
       113.72033250794262,
       14.01517519501611
      ]
     ]
    ]
   }
  },
  {
   "type": "Feature",
   "properties": {
    "codigo": "251750000000000000000000000013",
    "tipo": 1,
    "planta": 1,
    "area_m2": 245.69
   },
   "geometry": {
    "type": "Polygon",
    "coordinates": [
     [
      [
       24.22508107637303,
       40.024319642477984
      ],
      [
       24.11633465933378,
       37.36581163372493
      ],
      [
       0.0,
       39.57091212127678
      ],
      [
       0.0,
       47.515826651924186
      ],
      [
       19.132466670415013,
       51.281874966801524
      ],
      [
       24.22508107637303,
       40.024319642477984
      ]
     ]
    ]
   }
  },
  {
   "type": "Feature",
   "properties": {
    "codigo": "251750000000000000000000000013",
    "tipo": 1,
    "planta": 1,
    "area_m2": 252.01
   },
   "geometry": {
    "type": "Polygon",
    "coordinates": [
     [
      [
       0.0,
       47.515826651924186
      ],
      [
       0.0,
       64.72988412380542
      ],
      [
       13.077022612566976,
       64.66782785080878
      ],
      [
       19.132466670415013,
       51.281874966801524
      ],
      [
       0.0,
       47.515826651924186
      ]
     ]
    ]
   }
  },
  {
   "type": "Feature",
   "properties": {
    "codigo": "251750000000000000000000000013",
    "tipo": 1,
    "planta": 1,
    "area_m2": 115.12
   },
   "geometry": {
    "type": "Polygon",
    "coordinates": [
     [
      [
       13.077022612566976,
       64.66782785080878
      ],
      [
       25.23076594662604,
       64.61015294753648
      ],
      [
       24.730647318705234,
       52.383824817809156
      ],
      [
       19.132466670415013,
       51.281874966801524
      ],
      [
       13.077022612566976,
       64.66782785080878
      ]
     ]
    ]
   }
  },
  {
   "type": "Feature",
   "properties": {
    "codigo": "251750000000000000000000000013",
    "tipo": 1,
    "planta": 1,
    "area_m2": 34.32
   },
   "geometry": {
    "type": "Polygon",
    "coordinates": [
     [
      [
       24.730647318705234,
       52.383824817809156
      ],
      [
       24.22508107637303,
       40.024319642477984
      ],
      [
       19.132466670415013,
       51.281874966801524
      ],
      [
       24.730647318705234,
       52.383824817809156
      ]
     ]
    ]
   }
  },
  {
   "type": "Feature",
   "properties": {
    "codigo": "251750000000000000000000000014",
    "tipo": 1,
    "planta": 4,
    "area_m2": 740.91
   },
   "geometry": {
    "type": "Polygon",
    "coordinates": [
     [
      [
       24.11633465933378,
       37.36581163372493
      ],
      [
       52.49400069586649,
       42.016794280411546
      ],
      [
       53.557993890689666,
       67.3192247887865
      ],
      [
       25.23076594662604,
       64.61015294753648
      ],
      [
       24.11633465933378,
       37.36581163372493
      ]
     ]
    ]
   }
  },
  {
   "type": "Feature",
   "properties": {
    "codigo": "251750000000000000000000000015",
    "tipo": 2,
    "planta": 4,
    "area_m2": 587.05
   },
   "geometry": {
    "type": "Polygon",
    "coordinates": [
     [
      [
       52.49400069586649,
       42.016794280411546
      ],
      [
       75.9830589044797,
       41.11780095971565
      ],
      [
       77.5517272733008,
       65.09553362250672
      ],
      [
       53.557993890689666,
       67.3192247887865
      ],
      [
       52.49400069586649,
       42.016794280411546
      ]
     ]
    ]
   }
  },
  {
   "type": "Feature",
   "properties": {
    "codigo": "251750000000000000000000000016",
    "tipo": 2,
    "planta": 3,
    "area_m2": 487.75
   },
   "geometry": {
    "type": "Polygon",
    "coordinates": [
     [
      [
       75.9830589044797,
       41.11780095971565
      ],
      [
       96.58607161121428,
       38.41626541188378
      ],
      [
       95.53728072719129,
       64.95896726401192
      ],
      [
       77.5517272733008,
       65.09553362250672
      ],
      [
       75.9830589044797,
       41.11780095971565
      ]
     ]
    ]
   }
  },
  {
   "type": "Feature",
   "properties": {
    "codigo": "251750000000000000000000000017",
    "tipo": 2,
    "planta": 1,
    "area_m2": 39.05
   },
   "geometry": {
    "type": "Polygon",
    "coordinates": [
     [
      [
       117.78913213004341,
       44.84953756425672
      ],
      [
       118.7746447069564,
       40.94297960302926
      ],
      [
       110.37966656606305,
       39.98700508806499
      ],
      [
       106.01988296511209,
       43.11215117107179
      ],
      [
       117.78913213004341,
       44.84953756425672
      ]
     ]
    ]
   }
  },
  {
   "type": "Feature",
   "properties": {
    "codigo": "251750000000000000000000000017",
    "tipo": 2,
    "planta": 1,
    "area_m2": 40.77
   },
   "geometry": {
    "type": "Polygon",
    "coordinates": [
     [
      [
       96.58607161121428,
       38.41626541188378
      ],
      [
       96.45630574246248,
       41.70036791251744
      ],
      [
       99.14924473290719,
       42.09790181583702
      ],
      [
       106.01988296511209,
       43.11215117107179
      ],
      [
       110.37966656606305,
       39.98700508806499
      ],
      [
       99.39580122099233,
       38.736222159335476
      ],
      [
       96.58607161121428,
       38.41626541188378
      ]
     ]
    ]
   }
  },
  {
   "type": "Feature",
   "properties": {
    "codigo": "251750000000000000000000000017",
    "tipo": 2,
    "planta": 1,
    "area_m2": 40.92
   },
   "geometry": {
    "type": "Polygon",
    "coordinates": [
     [
      [
       106.01988296511209,
       43.11215117107179
      ],
      [
       99.14924473290719,
       42.09790181583702
      ],
      [
       96.45630574246248,
       41.70036791251744
      ],
      [
       96.12012419905925,
       50.20841905090278
      ],
      [
       98.68947228488783,
       48.366678991933625
      ],
      [
       106.01988296511209,
       43.11215117107179
      ]
     ]
    ]
   }
  },
  {
   "type": "Feature",
   "properties": {
    "codigo": "251750000000000000000000000017",
    "tipo": 2,
    "planta": 1,
    "area_m2": 370.42
   },
   "geometry": {
    "type": "Polygon",
    "coordinates": [
     [
      [
       113.03694477340979,
       63.68714125010061
      ],
      [
       117.78913213004341,
       44.84953756425672
      ],
      [
       106.01988296511209,
       43.11215117107179
      ],
      [
       98.68947228488783,
       48.366678991933625
      ],
      [
       96.12012419905925,
       50.20841905090278
      ],
      [
       95.53728072719129,
       64.95896726401192
      ],
      [
       97.48291100053353,
       64.81756436687317
      ],
      [
       113.03694477340979,
       63.68714125010061
      ]
     ]
    ]
   }
  },
  {
   "type": "Feature",
   "properties": {
    "codigo": "251750000000000000000000000018",
    "tipo": 2,
    "planta": 2,
    "area_m2": 652.09
   },
   "geometry": {
    "type": "Polygon",
    "coordinates": [
     [
      [
       118.7746447069564,
       40.94297960302926
      ],
      [
       143.15075004988023,
       39.57091212127678
      ],
      [
       143.15075004988023,
       64.72988412380542
      ],
      [
       113.03694477340979,
       63.68714125010061
      ],
      [
       118.7746447069564,
       40.94297960302926
      ]
     ]
    ]
   }
  },
  {
   "type": "Feature",
   "properties": {
    "codigo": "251750000000000000000000000019",
    "tipo": 1,
    "planta": 2,
    "area_m2": 390.39
   },
   "geometry": {
    "type": "Polygon",
    "coordinates": [
     [
      [
       9.009130269922771,
       64.68713180440854
      ],
      [
       0.0,
       64.72988412380542
      ],
      [
       0.0,
       85.28097346361751
      ],
      [
       22.57117120689798,
       86.44539962424967
      ],
      [
       23.475150827044576,
       79.02373582646345
      ],
      [
       9.009130269922771,
       64.68713180440854
      ]
     ]
    ]
   }
  },
  {
   "type": "Feature",
   "properties": {
    "codigo": "251750000000000000000000000019",
    "tipo": 1,
    "planta": 2,
    "area_m2": 116.84
   },
   "geometry": {
    "type": "Polygon",
    "coordinates": [
     [
      [
       23.475150827044576,
       79.02373582646345
      ],
      [
       25.23076594662604,
       64.61015294753648
      ],
      [
       9.009130269922771,
       64.68713180440854
      ],
      [
       23.475150827044576,
       79.02373582646345
      ]
     ]
    ]
   }
  },
  {
   "type": "Feature",
   "properties": {
    "codigo": "251750000000000000000000000020",
    "tipo": 2,
    "planta": 3,
    "area_m2": 532.46
   },
   "geometry": {
    "type": "Polygon",
    "coordinates": [
     [
      [
       25.23076594662604,
       64.61015294753648
      ],
      [
       53.557993890689666,
       67.3192247887865
      ],
      [
       48.77059266967379,
       84.44726770670326
      ],
      [
       22.57117120689798,
       86.44539962424967
      ],
      [
       25.23076594662604,
       64.61015294753648
      ]
     ]
    ]
   }
  },
  {
   "type": "Feature",
   "properties": {
    "codigo": "251750000000000000000000000021",
    "tipo": 1,
    "planta": 1,
    "area_m2": 533.27
   },
   "geometry": {
    "type": "Polygon",
    "coordinates": [
     [
      [
       53.557993890689666,
       67.3192247887865
      ],
      [
       77.5517272733008,
       65.09553362250672
      ],
      [
       78.5928028589048,
       87.54360042273379
      ],
      [
       48.77059266967379,
       84.44726770670326
      ],
      [
       53.557993890689666,
       67.3192247887865
      ]
     ]
    ]
   }
  },
  {
   "type": "Feature",
   "properties": {
    "codigo": "251750000000000000000000000022",
    "tipo": 1,
    "planta": 3,
    "area_m2": 348.71
   },
   "geometry": {
    "type": "Polygon",
    "coordinates": [
     [
      [
       96.5239097695276,
       74.34224073487374
      ],
      [
       95.53728072719129,
       64.95896726401192
      ],
      [
       77.5517272733008,
       65.09553362250672
      ],
      [
       78.5928028589048,
       87.54360042273379
      ],
      [
       89.27027267210426,
       85.9427056522003
      ],
      [
       96.5239097695276,
       74.34224073487374
      ]
     ]
    ]
   }
  },
  {
   "type": "Feature",
   "properties": {
    "codigo": "251750000000000000000000000022",
    "tipo": 1,
    "planta": 3,
    "area_m2": 43.85
   },
   "geometry": {
    "type": "Polygon",
    "coordinates": [
     [
      [
       89.27027267210426,
       85.9427056522003
      ],
      [
       97.61216138598779,
       84.69198930721755
      ],
      [
       96.5239097695276,
       74.34224073487374
      ],
      [
       89.27027267210426,
       85.9427056522003
      ]
     ]
    ]
   }
  },
  {
   "type": "Feature",
   "properties": {
    "codigo": "251750000000000000000000000023",
    "tipo": 1,
    "planta": 2,
    "area_m2": 167.68
   },
   "geometry": {
    "type": "Polygon",
    "coordinates": [
     [
      [
       113.63508316500825,
       72.26984311532291
      ],
      [
       113.03694477340979,
       63.68714125010061
      ],
      [
       95.53728072719129,
       64.95896726401192
      ],
      [
       96.65621528105983,
       75.60052398332685
      ],
      [
       113.63508316500825,
       72.26984311532291
      ]
     ]
    ]
   }
  },
  {
   "type": "Feature",
   "properties": {
    "codigo": "251750000000000000000000000023",
    "tipo": 1,
    "planta": 2,
    "area_m2": 184.84
   },
   "geometry": {
    "type": "Polygon",
    "coordinates": [
     [
      [
       96.65621528105983,
       75.60052398332685
      ],
      [
       97.61216138598779,
       84.69198930721755
      ],
      [
       114.5104583141601,
       84.83062174268525
      ],
      [
       113.63508316500825,
       72.26984311532291
      ],
      [
       96.65621528105983,
       75.60052398332685
      ]
     ]
    ]
   }
  },
  {
   "type": "Feature",
   "properties": {
    "codigo": "251750000000000000000000000024",
    "tipo": 2,
    "planta": 4,
    "area_m2": 611.88
   },
   "geometry": {
    "type": "Polygon",
    "coordinates": [
     [
      [
       113.03694477340979,
       63.68714125010061
      ],
      [
       143.15075004988023,
       64.72988412380542
      ],
      [
       143.15075004988023,
       85.28097346361751
      ],
      [
       114.5104583141601,
       84.83062174268525
      ],
      [
       113.03694477340979,
       63.68714125010061
      ]
     ]
    ]
   }
  },
  {
   "type": "Feature",
   "properties": {
    "codigo": "251750000000000000000000000025",
    "tipo": 1,
    "planta": 3,
    "area_m2": 240.66
   },
   "geometry": {
    "type": "Polygon",
    "coordinates": [
     [
      [
       22.283542592241457,
       103.5234274390879
      ],
      [
       24.00152746567467,
       103.5234274390879
      ],
      [
       22.57117120689798,
       86.44539962424967
      ],
      [
       0.0,
       85.28097346361751
      ],
      [
       0.0,
       88.25100585331079
      ],
      [
       22.283542592241457,
       103.5234274390879
      ]
     ]
    ]
   }
  },
  {
   "type": "Feature",
   "properties": {
    "codigo": "251750000000000000000000000025",
    "tipo": 1,
    "planta": 3,
    "area_m2": 170.16
   },
   "geometry": {
    "type": "Polygon",
    "coordinates": [
     [
      [
       0.0,
       88.25100585331079
      ],
      [
       0.0,
       103.5234274390879
      ],
      [
       22.283542592241457,
       103.5234274390879
      ],
      [
       0.0,
       88.25100585331079
      ]
     ]
    ]
   }
  },
  {
   "type": "Feature",
   "properties": {
    "codigo": "251750000000000000000000000026",
    "tipo": 2,
    "planta": 2,
    "area_m2": 495.6
   },
   "geometry": {
    "type": "Polygon",
    "coordinates": [
     [
      [
       22.57117120689798,
       86.44539962424967
      ],
      [
       48.77059266967379,
       84.44726770670326
      ],
      [
       52.356948281187876,
       103.5234274390879
      ],
      [
       24.00152746567467,
       103.5234274390879
      ],
      [
       22.57117120689798,
       86.44539962424967
      ]
     ]
    ]
   }
  },
  {
   "type": "Feature",
   "properties": {
    "codigo": "251750000000000000000000000027",
    "tipo": 1,
    "planta": 1,
    "area_m2": 489.92
   },
   "geometry": {
    "type": "Polygon",
    "coordinates": [
     [
      [
       48.77059266967379,
       84.44726770670326
      ],
      [
       78.5928028589048,
       87.54360042273379
      ],
      [
       78.76791932511097,
       103.5234274390879
      ],
      [
       52.356948281187876,
       103.5234274390879
      ],
      [
       48.77059266967379,
       84.44726770670326
      ]
     ]
    ]
   }
  },
  {
   "type": "Feature",
   "properties": {
    "codigo": "251750000000000000000000000028",
    "tipo": 2,
    "planta": 2,
    "area_m2": 317.96
   },
   "geometry": {
    "type": "Polygon",
    "coordinates": [
     [
      [
       78.5928028589048,
       87.54360042273379
      ],
      [
       97.61216138598779,
       84.69198930721755
      ],
      [
       96.37123436496043,
       103.5234274390879
      ],
      [
       78.76791932511097,
       103.5234274390879
      ],
      [
       78.5928028589048,
       87.54360042273379
      ]
     ]
    ]
   }
  },
  {
   "type": "Feature",
   "properties": {
    "codigo": "251750000000000000000000000029",
    "tipo": 2,
    "planta": 4,
    "area_m2": 334.93
   },
   "geometry": {
    "type": "Polygon",
    "coordinates": [
     [
      [
       97.61216138598779,
       84.69198930721755
      ],
      [
       114.5104583141601,
       84.83062174268525
      ],
      [
       115.17389492354003,
       103.5234274390879
      ],
      [
       96.37123436496043,
       103.5234274390879
      ],
      [
       97.61216138598779,
       84.69198930721755
      ]
     ]
    ]
   }
  },
  {
   "type": "Feature",
   "properties": {
    "codigo": "251750000000000000000000000030",
    "tipo": 2,
    "planta": 1,
    "area_m2": 327.97
   },
   "geometry": {
    "type": "Polygon",
    "coordinates": [
     [
      [
       127.37903172277701,
       85.03297248107825
      ],
      [
       114.5104583141601,
       84.83062174268525
      ],
      [
       115.17389492354003,
       103.5234274390879
      ],
      [
       137.6458402248424,
       103.5234274390879
      ],
      [
       127.37903172277701,
       85.03297248107825
      ]
     ]
    ]
   }
  },
  {
   "type": "Feature",
   "properties": {
    "codigo": "251750000000000000000000000030",
    "tipo": 2,
    "planta": 1,
    "area_m2": 194.75
   },
   "geometry": {
    "type": "Polygon",
    "coordinates": [
     [
      [
       137.6458402248424,
       103.5234274390879
      ],
      [
       143.15075004988023,
       103.5234274390879
      ],
      [
       143.15075004988023,
       85.28097346361751
      ],
      [
       127.37903172277701,
       85.03297248107825
      ],
      [
       137.6458402248424,
       103.5234274390879
      ]
     ]
    ]
   }
  }
 ]
}