{
 "type": "FeatureCollection",
 "features": [
  {
   "type": "Feature",
   "properties": {
    "umbral_dBA": 65,
    "area_km2": 73.11
   },
   "geometry": {
    "type": "Polygon",
    "coordinates": [
     [
      [
       -2560.0,
       -3563.8608151369913
      ],
      [
       -2440.0,
       -3560.4276536302755
      ],
      [
       -2320.0,
       -3565.9341731885156
      ],
      [
       -2200.0,
       -3583.925359351421
      ],
      [
       -2080.0,
       -3572.2512925926303
      ],
      [
       -1960.0000000000002,
       -3562.417511910227
      ],
      [
       -1953.973432071767,
       -3560.0
      ],
      [
       -1840.0,
       -3524.783118459737
      ],
      [
       -1720.0,
       -3506.2164753916063
      ],
      [
       -1600.0,
       -3481.7880631600565
      ],
      [
       -1480.0000000000002,
       -3443.1345483085984
      ],
      [
       -1470.7017778629056,
       -3440.0
      ],
      [
       -1360.0,
       -3394.216286570206
      ],
      [
       -1240.0,
       -3333.686379768365
      ],
      [
       -1210.1669783182379,
       -3320.0
      ],
      [
       -1120.0,
       -3289.4507334138993
      ],
      [
       -1000.0,
       -3278.033962293144
      ],
      [
       -880.0,
       -3277.7647614131056
      ],
      [
       -760.0,
       -3274.209627487935
      ],
      [
       -640.0,
       -3283.070825594385
      ],
      [
       -520.0,
       -3299.3585254724176
      ],
      [
       -400.4141756143758,
       -3320.0
      ],
      [
       -400.0,
       -3320.082123269635
      ],
      [
       -399.1004900030405,
       -3320.0
      ],
      [
       -280.0,
       -3311.852383141212
      ],
      [
       -160.0,
       -3302.3246689525986
      ],
      [
       -40.0,
       -3284.071794159058
      ],
      [
       80.0,
       -3289.4470804804746
      ],
      [
       200.0,
       -3276.6589885529365
      ],
      [
       320.0,
       -3261.081874300915
      ],
      [
       440.0,
       -3229.385796805599
      ],
      [
       560.0,
       -3233.4960469347748
      ],
      [
       680.0,
       -3252.8045735045075
      ],
      [
       800.0,
       -3277.271597158606
      ],
      [
       920.0,
       -3302.8566408947913
      ],
      [
       1040.0,
       -3306.2399101626675
      ],
      [
       1100.63900672168,
       -3320.0
      ],
      [
       1160.0,
       -3336.2655596418226
      ],
      [
       1280.0,
       -3353.2550981402937
      ],
      [
       1400.0,
       -3358.1229062796583
      ],
      [
       1520.0,
       -3371.1866485676746
      ],
      [
       1640.0,
       -3391.6330618791153
      ],
      [
       1760.0,
       -3431.8158025356574
      ],
      [
       1775.5176920509912,
       -3440.0
      ],
      [
       1880.0,
       -3491.6281182551857
      ],
      [
       2000.0,
       -3531.821091102776
      ],
      [
       2120.0,
       -3541.316512648037
      ],
      [
       2240.0,
       -3547.5016701429404
      ],
      [
       2360.0,
       -3529.1499592414602
      ],
      [
       2480.0,
       -3551.196947442674
      ],
      [
       2557.5086228165947,
       -3560.0
      ],
      [
       2600.0,
       -3566.0393192649467
      ],
      [
       2624.194802366059,
       -3560.0
      ],
      [
       2720.0,
       -3539.692950166706
      ],
      [
       2840.0,
       -3486.346722787143
      ],
      [
       2960.0,
       -3458.2883201449845
      ],
      [
       3080.0,
       -3446.057846381618
      ],
      [
       3200.0,
       -3446.133389563264
      ],
      [
       3221.82676644092,
       -3440.0
      ],
      [
       3320.0,
       -3404.2407192476526
      ],
      [
       3440.0,
       -3377.6651579128547
      ],
      [
       3560.0000000000005,
       -3337.209592419716
      ],
      [
       3597.0364319987657,
       -3320.0
      ],
      [
       3680.0,
       -3264.411113005835
      ],
      [
       3747.3264786905656,
       -3200.0
      ],
      [
       3800.0,
       -3138.6330390566172
      ],
      [
       3885.7596999955076,
       -3080.0
      ],
      [
       3920.0,
       -3065.1687634153914
      ],
      [
       4040.0,
       -3029.916590276612
      ],
      [
       4160.0,
       -2963.5184498486988
      ],
      [
       4164.601759748288,
       -2960.0
      ],
      [
       4280.0,
       -2890.4548051840866
      ],
      [
       4400.0,
       -2842.855448036004
      ],
      [
       4409.777623389082,
       -2840.0000000000005
      ],
      [
       4520.0,
       -2790.356568463878
      ],
      [
       4602.455673884585,
       -2720.0
      ],
      [
       4640.0,
       -2658.6114664126617
      ],
      [
       4673.552973522912,
       -2600.0
      ],
      [
       4760.0,
       -2483.4348057306906
      ],
      [
       4763.7554284982425,
       -2480.0
      ],
      [
       4880.0,
       -2399.143269724442
      ],
      [
       4939.999778191068,
       -2360.0
      ],
      [
       5000.0,
       -2318.6115740237165
      ],
      [
       5103.590480341986,
       -2240.0
      ],
      [
       5120.0,
       -2226.3888243407764
      ],
      [
       5239.999999999999,
       -2121.1674631351443
      ],
      [
       5241.112038945863,
       -2120.0
      ],
      [
       5340.460249391537,
       -2000.0
      ],
      [
       5360.0,
       -1967.7624194698813
      ],
      [
       5402.221483479022,
       -1880.0
      ],
      [
       5456.061302186772,
       -1760.0
      ],
      [
       5480.0,
       -1722.9627448809924
      ],
      [
       5553.032910317301,
       -1640.0
      ],
      [
       5600.0,
       -1607.5969009604814
      ],
      [
       5718.854484321412,
       -1520.0
      ],
      [
       5720.0,
       -1519.191062118837
      ],
      [
       5840.0,
       -1419.7488863977428
      ],
      [
       5860.684191880037,
       -1400.0
      ],
      [
       5960.0,
       -1317.321525232614
      ],
      [
       6003.160880643919,
       -1280.0
      ],
      [
       6080.0,
       -1200.0671914406578
      ],
      [
       6112.988125201766,
       -1160.0
      ],
      [
       6188.641743503415,
       -1040.0
      ],
      [
       6200.0,
       -1023.3705943404004
      ],
      [
       6281.888885812583,
       -920.0
      ],
      [
       6320.0,
       -870.9946005247339
      ],
      [
       6431.130832050773,
       -800.0
      ],
      [
       6412.96545985372,
       -680.0
      ],
      [
       6356.715703897897,
       -560.0
      ],
      [
       6320.0,
       -500.05990262886024
      ],
      [
       6291.734584191493,
       -440.0
      ],
      [
       6200.0,
       -321.7176259180543
      ],
      [
       6198.76365611886,
       -320.0
      ],
      [
       6108.088021006535,
       -200.0
      ],
      [
       6080.0,
       -156.66689302999978
      ],
      [
       6002.407605299927,
       -80.0
      ],
      [
       5960.0,
       31.7415066360496
      ],
      [
       5956.182315442741,
       40.0
      ],
      [
       5960.0,
       46.06942018939297
      ],
      [
       6034.422223821604,
       160.0
      ],
      [
       6080.0,
       208.95447700531088
      ],
      [
       6138.029754537229,
       280.0
      ],
      [
       6200.0,
       335.29097356893067
      ],
      [
       6294.486298798769,
       400.0
      ],
      [
       6320.0,
       415.2527643368636
      ],
      [
       6440.0,
       489.2091406530548
      ],
      [
       6468.356909895721,
       520.0
      ],
      [
       6513.728462891915,
       640.0
      ],
      [
       6499.050828391484,
       760.0
      ],
      [
       6453.286405294902,
       880.0
      ],
      [
       6440.0,
       902.4273999909459
      ],
      [
       6347.714384874394,
       1000.0
      ],
      [
       6319.999999999999,
       1027.2362604530367
      ],
      [
       6200.0,
       1113.7875178334084
      ],
      [
       6163.666994829051,
       1120.0
      ],
      [
       6080.0,
       1137.7023733506398
      ],
      [
       5960.0,
       1186.1707093796872
      ],
      [
       5907.70120710381,
       1240.0
      ],
      [
       5840.0,
       1291.774205669505
      ],
      [
       5771.8165981425245,
       1360.0
      ],
      [
       5720.0,
       1416.5854146100728
      ],
      [
       5667.021643434466,
       1480.0
      ],
      [
       5600.0,
       1595.019427970819
      ],
      [
       5595.785126643711,
       1600.0
      ],
      [
       5518.10769384448,
       1720.0
      ],
      [
       5480.0,
       1769.5003254147746
      ],
      [
       5420.892978944901,
       1840.0
      ],
      [
       5360.0,
       1903.8860128979395
      ],
      [
       5315.211274151388,
       1960.0
      ],
      [
       5240.0,
       2043.8556206128933
      ],
      [
       5202.123395129794,
       2080.0
      ],
      [
       5120.0,
       2134.955255583819
      ],
      [
       5000.0,
       2192.3156143567926
      ],
      [
       4984.964327894643,
       2200.0
      ],
      [
       4880.0,
       2257.4783627383163
      ],
      [
       4799.17849263889,
       2320.0
      ],
      [
       4760.0,
       2359.8169845231023
      ],
      [
       4707.083902404472,
       2440.0
      ],
      [
       4640.0,
       2532.914792075509
      ],
      [
       4613.923131909775,
       2560.0
      ],
      [
       4520.0,
       2641.2595047355517
      ],
      [
       4440.149966531458,
       2680.0
      ],
      [
       4400.0,
       2706.8804079740007
      ],
      [
       4303.086835181767,
       2800.0
      ],
      [
       4280.0,
       2859.5141061268014
      ],
      [
       4256.942515088076,
       2920.0
      ],
      [
       4177.455439826754,
       3040.0
      ],
      [
       4160.0,
       3050.3723546600013
      ],
      [
       4040.0,
       3105.6004081037718
      ],
      [
       3920.0,
       3159.022961370561
      ],
      [
       3916.9846866473413,
       3160.0
      ],
      [
       3800.0,
       3203.1036813099154
      ],
      [
       3680.0,
       3236.6042560376736
      ],
      [
       3568.8684040889184,
       3280.0
      ],
      [
       3559.9999999999995,
       3283.526171608282
      ],
      [
       3440.0,
       3318.2800206357656
      ],
      [
       3320.0,
       3361.9212792771696
      ],
      [
       3240.2844349103525,
       3400.0
      ],
      [
       3200.0,
       3420.0376473094066
      ],
      [
       3080.0,
       3508.105899858639
      ],
      [
       3061.438856391565,
       3520.0
      ],
      [
       2960.0,
       3576.067446344022
      ],
      [
       2840.0,
       3578.8255577905957
      ],
      [
       2720.0,
       3556.082833439591
      ],
      [
       2600.0,
       3530.516874443818
      ],
      [
       2480.0,
       3540.6216071541276
      ],
      [
       2360.0,
       3541.000246379
      ],
      [
       2240.0,
       3526.593895306518
      ],
      [
       2125.034292604729,
       3520.0
      ],
      [
       2120.0,
       3519.703912862979
      ],
      [
       2000.0,
       3499.238865035304
      ],
      [
       1880.0,
       3474.9622250136167
      ],
      [
       1760.0,
       3422.236062180887
      ],
      [
       1725.5544195033715,
       3400.0
      ],
      [
       1640.0,
       3367.2872142934293
      ],
      [
       1520.0,
       3342.142137230255
      ],
      [
       1400.0,
       3324.276780316209
      ],
      [
       1280.0,
       3312.165318242762
      ],
      [
       1160.0,
       3313.016970791346
      ],
      [
       1040.0,
       3299.7825296447777
      ],
      [
       959.3365897952431,
       3280.0
      ],
      [
       920.0,
       3270.8908357456285
      ],
      [
       800.0,
       3252.9235926366305
      ],
      [
       680.0,
       3246.9192284629853
      ],
      [
       582.6991777838865,
       3280.0
      ],
      [
       560.0,
       3286.7279533122373
      ],
      [
       440.0,
       3330.8583816304435
      ],
      [
       320.0,
       3351.944569441672
      ],
      [
       200.0,
       3333.2369500589216
      ],
      [
       80.0,
       3347.826270541448
      ],
      [
       -39.83754016980343,
       3400.0000000000005
      ],
      [
       -40.0,
       3400.072112313528
      ],
      [
       -42.43937820650756,
       3400.0
      ],
      [
       -160.0,
       3395.1088121385737
      ],
      [
       -280.0,
       3327.1968996129835
      ],
      [
       -400.0,
       3300.4869557466945
      ],
      [
       -520.0,
       3318.565316112375
      ],
      [
       -640.0,
       3342.278786209746
      ],
      [
       -760.0,
       3349.7500477675694
      ],
      [
       -880.0,
       3336.365361734316
      ],
      [
       -1000.0,
       3330.6764206658136
      ],
      [
       -1120.0,
       3333.3832554439487
      ],
      [
       -1240.0,
       3327.9769140909557
      ],
      [
       -1360.0,
       3315.8366567309304
      ],
      [
       -1480.0,
       3319.5129811816223
      ],
      [
       -1600.0,
       3342.136022963673
      ],
      [
       -1720.0,
       3380.2704417203377
      ],
      [
       -1773.0593335743338,
       3400.0
      ],
      [
       -1840.0,
       3443.164172967744
      ],
      [
       -1960.0,
       3499.9987290512427
      ],
      [
       -2009.4634305708992,
       3520.0
      ],
      [
       -2080.0,
       3551.972622572838
      ],
      [
       -2200.0,
       3562.2352091463035
      ],
      [
       -2320.0,
       3573.403854778023
      ],
      [
       -2440.0,
       3584.7174822660577
      ],
      [
       -2560.0,
       3569.4915429802945
      ],
      [
       -2680.0,
       3563.114204210947
      ],
      [
       -2800.0,
       3543.9537714537296
      ],
      [
       -2920.0,
       3547.825280807747
      ],
      [
       -2973.0362430433092,
       3520.0
      ],
      [
       -3040.0,
       3477.3778794327563
      ],
      [
       -3151.6007562603754,
       3400.0
      ],
      [
       -3160.0,
       3395.781954340101
      ],
      [
       -3280.0,
       3356.660406380469
      ],
      [
       -3400.0,
       3330.250717016249
      ],
      [
       -3520.0,
       3319.7908316906305
      ],
      [
       -3615.770437327037,
       3280.0
      ],
      [
       -3640.0,
       3269.5517624428307
      ],
      [
       -3760.0,
       3227.7039404037605
      ],
      [
       -3880.0000000000005,
       3188.843929928248
      ],
      [
       -3988.940689180735,
       3160.0
      ],
      [
       -4000.0,
       3156.7125862447297
      ],
      [
       -4120.0,
       3083.9300643925926
      ],
      [
       -4169.261441724186,
       3040.0
      ],
      [
       -4240.0,
       2957.040643000808
      ],
      [
       -4268.306920012112,
       2920.0
      ],
      [
       -4360.0,
       2827.9146484097832
      ],
      [
       -4392.585640279884,
       2800.0
      ],
      [
       -4480.0,
       2735.3982639906726
      ],
      [
       -4550.287735543599,
       2680.0
      ],
      [
       -4600.0,
       2635.5753354760877
      ],
      [
       -4681.341396108128,
       2560.0
      ],
      [
       -4720.0,
       2526.082911282221
      ],
      [
       -4824.246356851538,
       2440.0
      ],
      [
       -4840.0,
       2429.4770181510953
      ],
      [
       -4960.0,
       2358.5877759516493
      ],
      [
       -5018.954489585023,
       2320.0
      ],
      [
       -5080.0,
       2263.483450664239
      ],
      [
       -5138.266878055629,
       2200.0
      ],
      [
       -5200.0,
       2132.695563369855
      ],
      [
       -5262.2973483092555,
       2080.0
      ],
      [
       -5320.0,
       2043.4070286655926
      ],
      [
       -5409.887306082589,
       1960.0
      ],
      [
       -5440.0,
       1919.9385701671451
      ],
      [
       -5490.575373570748,
       1840.0
      ],
      [
       -5531.956701740262,
       1720.0
      ],
      [
       -5560.0,
       1660.4169062531296
      ],
      [
       -5595.190242119148,
       1600.0
      ],
      [
       -5680.0,
       1513.7891757233042
      ],
      [
       -5708.340691237209,
       1480.0
      ],
      [
       -5800.0,
       1376.1598667627677
      ],
      [
       -5814.4921869876725,
       1360.0
      ],
      [
       -5920.000000000001,
       1244.0612290042131
      ],
      [
       -5925.027919052396,
       1240.0
      ],
      [
       -6040.0,
       1148.6517271496473
      ],
      [
       -6072.079602238607,
       1120.0
      ],
      [
       -6160.0,
       1042.100955502427
      ],
      [
       -6191.743163170953,
       1000.0
      ],
      [
       -6265.379756546767,
       880.0
      ],
      [
       -6280.0,
       845.8244867244748
      ],
      [
       -6330.231088327433,
       760.0
      ],
      [
       -6351.187986581612,
       640.0
      ],
      [
       -6319.491929088602,
       520.0
      ],
      [
       -6280.0,
       476.8320165737627
      ],
      [
       -6199.289204940327,
       400.0
      ],
      [
       -6160.0,
       372.0130762238383
      ],
      [
       -6040.0,
       292.87763605333714
      ],
      [
       -6027.441593537699,
       280.0
      ],
      [
       -5961.465647584818,
       160.0
      ],
      [
       -5920.0,
       50.79932889232506
      ],
      [
       -5916.943876119603,
       40.0
      ],
      [
       -5920.0,
       26.594082470885237
      ],
      [
       -5951.006792950793,
       -80.0
      ],
      [
       -5987.717437720876,
       -200.0
      ],
      [
       -6040.0,
       -285.3436655155579
      ],
      [
       -6063.604896433993,
       -320.0
      ],
      [
       -6160.0,
       -388.88487375196087
      ],
      [
       -6213.710014585171,
       -440.0
      ],
      [
       -6280.0,
       -495.73482342590887
      ],
      [
       -6372.208560519884,
       -560.0
      ],
      [
       -6400.0,
       -596.5883968722871
      ],
      [
       -6494.813424873292,
       -680.0
      ],
      [
       -6407.744119433902,
       -800.0
      ],
      [
       -6400.0,
       -807.1918535433142
      ],
      [
       -6329.108000039836,
       -920.0
      ],
      [
       -6280.0,
       -974.636022738253
      ],
      [
       -6233.718559351485,
       -1040.0
      ],
      [
       -6160.0,
       -1105.0495412422388
      ],
      [
       -6106.909364931047,
       -1160.0
      ],
      [
       -6040.0,
       -1222.3981100700885
      ],
      [
       -5960.766228588905,
       -1280.0
      ],
      [
       -5920.0,
       -1322.2746584845247
      ],
      [
       -5851.925362733447,
       -1400.0
      ],
      [
       -5800.0,
       -1513.0689484884385
      ],
      [
       -5796.582273921593,
       -1520.0
      ],
      [
       -5692.240889285277,
       -1640.0
      ],
      [
       -5680.0,
       -1654.1843348199525
      ],
      [
       -5560.0,
       -1710.3416597943442
      ],
      [
       -5493.053979050208,
       -1760.0
      ],
      [
       -5440.0,
       -1798.7537726772082
      ],
      [
       -5374.231832675816,
       -1880.0
      ],
      [
       -5320.0,
       -1936.56038825504
      ],
      [
       -5269.555323295261,
       -2000.0
      ],
      [
       -5200.0,
       -2105.5102503100225
      ],
      [
       -5189.640988897585,
       -2120.0
      ],
      [
       -5080.0,
       -2229.745762152743
      ],
      [
       -5069.103673326365,
       -2240.0
      ],
      [
       -4960.0,
       -2340.8810524549094
      ],
      [
       -4938.487792125012,
       -2360.0
      ],
      [
       -4840.0,
       -2438.589108579159
      ],
      [
       -4772.027626764941,
       -2480.0
      ],
      [
       -4720.0,
       -2513.506605638154
      ],
      [
       -4609.600992588787,
       -2600.0
      ],
      [
       -4600.0,
       -2611.264481370149
      ],
      [
       -4521.100952092129,
       -2720.0
      ],
      [
       -4480.0,
       -2771.4675844431868
      ],
      [
       -4419.431288481011,
       -2840.0
      ],
      [
       -4360.0,
       -2890.061561686982
      ],
      [
       -4240.0,
       -2952.0440996788734
      ],
      [
       -4209.967597651757,
       -2960.0
      ],
      [
       -4120.0,
       -2985.3533978660253
      ],
      [
       -4000.0,
       -3031.131036530016
      ],
      [
       -3939.300126549204,
       -3080.0
      ],
      [
       -3880.0,
       -3137.1994802608215
      ],
      [
       -3811.098508481283,
       -3200.0
      ],
      [
       -3760.0,
       -3235.3262241072403
      ],
      [
       -3640.0,
       -3292.709685213
      ],
      [
       -3549.807734068205,
       -3320.0
      ],
      [
       -3520.0,
       -3327.8550546171764
      ],
      [
       -3400.0,
       -3355.9758244703944
      ],
      [
       -3280.0,
       -3393.9125913659705
      ],
      [
       -3196.1252703526316,
       -3440.0
      ],
      [
       -3159.9999999999995,
       -3460.702109059725
      ],
      [
       -3040.0,
       -3451.338757790164
      ],
      [
       -2920.0,
       -3462.810413442193
      ],
      [
       -2800.0,
       -3493.2010408166125
      ],
      [
       -2680.0,
       -3539.696659009641
      ],
      [
       -2580.4094357046524,
       -3560.0
      ],
      [
       -2560.0,
       -3563.8608151369913
      ]
     ]
    ]
   }
  }
 ]
}